{
  "type": "FeatureCollection",
  "features": [
    {
      "type": "Feature",
      "properties": {
        "norad_id": 33412,
        "name": "COSMO-SKYMED 3",
        "group": "resource",
        "lat": -82.05143694565835,
        "lon": -68.50823556197648,
        "alt_km": 566.8052519960938,
        "timestamp": "2025-12-25T22:42:16.653077+00:00",
        "meta_object_name": "COSMO-SKYMED 3",
        "meta_object_id": "2008-054A",
        "meta_epoch": "2025-12-25T18:18:50.670144",
        "meta_mean_motion": 15.05467207,
        "meta_eccentricity": 0.0017184,
        "meta_inclination": 97.8451,
        "meta_ra_of_asc_node": 210.3753,
        "meta_arg_of_pericenter": 129.8246,
        "meta_mean_anomaly": 230.4495,
        "meta_ephemeris_type": 0,
        "meta_classification_type": "U",
        "meta_norad_cat_id": 33412,
        "meta_element_set_no": 999,
        "meta_rev_at_epoch": 93083,
        "meta_bstar": 0.00037971,
        "meta_mean_motion_dot": 5.409e-05,
        "meta_mean_motion_ddot": 0,
        "tle_line1": "1 33412U 08054A   25359.76308646  .00005409  00000+0  37971-3 0  9991",
        "tle_line2": "2 33412  97.8451 210.3753 0017184 129.8246 230.4495 15.05467207930830"
      },
      "geometry": {
        "type": "Point",
        "coordinates": [
          -68.50823556197648,
          -82.05143694565835
        ]
      }
    },
    {
      "type": "Feature",
      "properties": {
        "norad_id": 33446,
        "name": "YAOGAN-4",
        "group": "resource",
        "lat": -72.3829452990534,
        "lon": 83.91586661178744,
        "alt_km": 619.6555415111161,
        "timestamp": "2025-12-25T22:42:16.653087+00:00",
        "meta_object_name": "YAOGAN-4",
        "meta_object_id": "2008-061A",
        "meta_epoch": "2025-12-25T18:19:17.173344",
        "meta_mean_motion": 14.8271976,
        "meta_eccentricity": 0.0012966,
        "meta_inclination": 97.9198,
        "meta_ra_of_asc_node": 289.7359,
        "meta_arg_of_pericenter": 277.0684,
        "meta_mean_anomaly": 82.9055,
        "meta_ephemeris_type": 0,
        "meta_classification_type": "U",
        "meta_norad_cat_id": 33446,
        "meta_element_set_no": 999,
        "meta_rev_at_epoch": 91996,
        "meta_bstar": 0.00018511,
        "meta_mean_motion_dot": 1.442e-05,
        "meta_mean_motion_ddot": 0,
        "tle_line1": "1 33446U 08061A   25359.76339321  .00001442  00000+0  18511-3 0  9992",
        "tle_line2": "2 33446  97.9198 289.7359 0012966 277.0684  82.9055 14.82719760919964"
      },
      "geometry": {
        "type": "Point",
        "coordinates": [
          83.91586661178744,
          -72.3829452990534
        ]
      }
    },
    {
      "type": "Feature",
      "properties": {
        "norad_id": 33492,
        "name": "GOSAT (IBUKI)",
        "group": "resource",
        "lat": -52.51454304361851,
        "lon": 119.03668459014794,
        "alt_km": 676.546785205589,
        "timestamp": "2025-12-25T22:42:16.653097+00:00",
        "meta_object_name": "GOSAT (IBUKI)",
        "meta_object_id": "2009-002A",
        "meta_epoch": "2025-12-25T18:02:16.478304",
        "meta_mean_motion": 14.67549806,
        "meta_eccentricity": 0.0001031,
        "meta_inclination": 98.0771,
        "meta_ra_of_asc_node": 108.1742,
        "meta_arg_of_pericenter": 105.3447,
        "meta_mean_anomaly": 254.7872,
        "meta_ephemeris_type": 0,
        "meta_classification_type": "U",
        "meta_norad_cat_id": 33492,
        "meta_element_set_no": 999,
        "meta_rev_at_epoch": 90602,
        "meta_bstar": 0.00017203,
        "meta_mean_motion_dot": 9.28e-06,
        "meta_mean_motion_ddot": 0,
        "tle_line1": "1 33492U 09002A   25359.75157961  .00000928  00000+0  17203-3 0  9991",
        "tle_line2": "2 33492  98.0771 108.1742 0001031 105.3447 254.7872 14.67549806906029"
      },
      "geometry": {
        "type": "Point",
        "coordinates": [
          119.03668459014794,
          -52.51454304361851
        ]
      }
    },
    {
      "type": "Feature",
      "properties": {
        "norad_id": 35681,
        "name": "DEIMOS-1",
        "group": "resource",
        "lat": 16.134335879957035,
        "lon": 157.68751284750752,
        "alt_km": 644.6835989875099,
        "timestamp": "2025-12-25T22:42:16.653108+00:00",
        "meta_object_name": "DEIMOS-1",
        "meta_object_id": "2009-041A",
        "meta_epoch": "2025-12-25T17:44:47.772384",
        "meta_mean_motion": 14.74970704,
        "meta_eccentricity": 0.0002446,
        "meta_inclination": 97.7157,
        "meta_ra_of_asc_node": 159.7383,
        "meta_arg_of_pericenter": 59.9451,
        "meta_mean_anomaly": 300.2001,
        "meta_ephemeris_type": 0,
        "meta_classification_type": "U",
        "meta_norad_cat_id": 35681,
        "meta_element_set_no": 999,
        "meta_rev_at_epoch": 88131,
        "meta_bstar": 8.1888e-05,
        "meta_mean_motion_dot": 5.03e-06,
        "meta_mean_motion_ddot": 0,
        "tle_line1": "1 35681U 09041A   25359.73944181  .00000503  00000+0  81888-4 0  9992",
        "tle_line2": "2 35681  97.7157 159.7383 0002446  59.9451 300.2001 14.74970704881316"
      },
      "geometry": {
        "type": "Point",
        "coordinates": [
          157.68751284750752,
          16.134335879957035
        ]
      }
    },
    {
      "type": "Feature",
      "properties": {
        "norad_id": 35682,
        "name": "DUBAISAT-1",
        "group": "resource",
        "lat": -63.45029985011776,
        "lon": 146.73621146216007,
        "alt_km": 647.7764116451108,
        "timestamp": "2025-12-25T22:42:16.653119+00:00",
        "meta_object_name": "DUBAISAT-1",
        "meta_object_id": "2009-041B",
        "meta_epoch": "2025-12-25T14:51:15.709248",
        "meta_mean_motion": 14.7463875,
        "meta_eccentricity": 0.0009257,
        "meta_inclination": 97.9798,
        "meta_ra_of_asc_node": 130.1097,
        "meta_arg_of_pericenter": 268.0894,
        "meta_mean_anomaly": 91.9254,
        "meta_ephemeris_type": 0,
        "meta_classification_type": "U",
        "meta_norad_cat_id": 35682,
        "meta_element_set_no": 999,
        "meta_rev_at_epoch": 87951,
        "meta_bstar": 0.00021668,
        "meta_mean_motion_dot": 1.396e-05,
        "meta_mean_motion_ddot": 0,
        "tle_line1": "1 35682U 09041B   25359.61893182  .00001396  00000+0  21668-3 0  9994",
        "tle_line2": "2 35682  97.9798 130.1097 0009257 268.0894  91.9254 14.74638750879511"
      },
      "geometry": {
        "type": "Point",
        "coordinates": [
          146.73621146216007,
          -63.45029985011776
        ]
      }
    },
    {
      "type": "Feature",
      "properties": {
        "norad_id": 35931,
        "name": "OCEANSAT-2",
        "group": "resource",
        "lat": 27.061421414835138,
        "lon": -176.5575732619407,
        "alt_km": 903.1025231043404,
        "timestamp": "2025-12-25T22:42:16.653129+00:00",
        "meta_object_name": "OCEANSAT-2",
        "meta_object_id": "2009-051A",
        "meta_epoch": "2025-12-25T18:32:50.981856",
        "meta_mean_motion": 13.99622952,
        "meta_eccentricity": 0.0015883,
        "meta_inclination": 98.2218,
        "meta_ra_of_asc_node": 359.0509,
        "meta_arg_of_pericenter": 10.775,
        "meta_mean_anomaly": 349.3753,
        "meta_ephemeris_type": 0,
        "meta_classification_type": "U",
        "meta_norad_cat_id": 35931,
        "meta_element_set_no": 999,
        "meta_rev_at_epoch": 85507,
        "meta_bstar": 2.606e-05,
        "meta_mean_motion_dot": 1e-08,
        "meta_mean_motion_ddot": 0,
        "tle_line1": "1 35931U 09051A   25359.77281229  .00000001  00000+0  26060-4 0  9996",
        "tle_line2": "2 35931  98.2218 359.0509 0015883  10.7750 349.3753 13.99622952855076"
      },
      "geometry": {
        "type": "Point",
        "coordinates": [
          -176.5575732619407,
          27.061421414835138
        ]
      }
    },
    {
      "type": "Feature",
      "properties": {
        "norad_id": 35946,
        "name": "WORLDVIEW-2 (WV-2)",
        "group": "resource",
        "lat": -74.50200597801286,
        "lon": 103.38697709513261,
        "alt_km": 774.7134261041292,
        "timestamp": "2025-12-25T22:42:16.653140+00:00",
        "meta_object_name": "WORLDVIEW-2 (WV-2)",
        "meta_object_id": "2009-055A",
        "meta_epoch": "2025-12-25T18:03:04.855392",
        "meta_mean_motion": 14.37729707,
        "meta_eccentricity": 0.0004683,
        "meta_inclination": 98.4772,
        "meta_ra_of_asc_node": 70.6579,
        "meta_arg_of_pericenter": 38.4466,
        "meta_mean_anomaly": 321.7054,
        "meta_ephemeris_type": 0,
        "meta_classification_type": "U",
        "meta_norad_cat_id": 35946,
        "meta_element_set_no": 999,
        "meta_rev_at_epoch": 85072,
        "meta_bstar": 7.3593e-05,
        "meta_mean_motion_dot": 1.78e-06,
        "meta_mean_motion_ddot": 0,
        "tle_line1": "1 35946U 09055A   25359.75213953  .00000178  00000+0  73593-4 0  9991",
        "tle_line2": "2 35946  98.4772  70.6579 0004683  38.4466 321.7054 14.37729707850723"
      },
      "geometry": {
        "type": "Point",
        "coordinates": [
          103.38697709513261,
          -74.50200597801286
        ]
      }
    }
  ]
}